[{"OBJECT_NAME":"STARLINK-35455","OBJECT_ID":"2025-240G","EPOCH":"2026-03-09T06:39:12.012768","MEAN_MOTION":15.30198458,"ECCENTRICITY":0.00012783,"INCLINATION":53.1588,"RA_OF_ASC_NODE":64.8501,"ARG_OF_PERICENTER":91.8307,"MEAN_ANOMALY":268.284,"EPHEMERIS_TYPE":0,"CLASSIFICATION_TYPE":"U","NORAD_CAT_ID":66152,"ELEMENT_SET_NO":999,"REV_AT_EPOCH":2192,"BSTAR":0.00089014376,"MEAN_MOTION_DOT":0.00026096,"MEAN_MOTION_DDOT":0},{"OBJECT_NAME":"COSMOS 2251 DEB","OBJECT_ID":"1993-036AWN","EPOCH":"2026-03-09T06:26:08.321568","MEAN_MOTION":15.11257706,"ECCENTRICITY":0.00842289,"INCLINATION":74.0116,"RA_OF_ASC_NODE":284.5024,"ARG_OF_PERICENTER":350.308,"MEAN_ANOMALY":9.6482,"EPHEMERIS_TYPE":0,"CLASSIFICATION_TYPE":"U","NORAD_CAT_ID":35996,"ELEMENT_SET_NO":999,"REV_AT_EPOCH":73632,"BSTAR":0.00055219842,"MEAN_MOTION_DOT":0.00010085,"MEAN_MOTION_DDOT":0}]
